{
    "links": {
        "self": "http://www.neowsapp.com/rest/v1/neo/3444293?api_key=iIulBulltgU6a56xZRHN4H3l9WmuAYTsLGpBGhQ2"
    },
    "id": "3444293",
    "neo_reference_id": "3444293",
    "name": "(2009 AG16)",
    "designation": "2009 AG16",
    "nasa_jpl_url": "http://ssd.jpl.nasa.gov/sbdb.cgi?sstr=3444293",
    "absolute_magnitude_h": 21.2,
    "estimated_diameter": {
        "kilometers": {
            "estimated_diameter_min": 0.1529519353,
            "estimated_diameter_max": 0.3420109247
        },
        "meters": {
            "estimated_diameter_min": 152.9519353442,
            "estimated_diameter_max": 342.0109247198
        },
        "miles": {
            "estimated_diameter_min": 0.095039897,
            "estimated_diameter_max": 0.2125156703
        },
        "feet": {
            "estimated_diameter_min": 501.8108275547,
            "estimated_diameter_max": 1122.0831222578
        }
    },
    "is_potentially_hazardous_asteroid": false,
    "close_approach_data": [
        {
            "close_approach_date": "2007-01-17",
            "close_approach_date_full": "2007-Jan-17 09:12",
            "epoch_date_close_approach": 1169025120000,
            "relative_velocity": {
                "kilometers_per_second": "30.7631543908",
                "kilometers_per_hour": "110747.3558070456",
                "miles_per_hour": "68814.1000568834"
            },
            "miss_distance": {
                "astronomical": "0.2711734027",
                "lunar": "105.4864536503",
                "kilometers": "40566963.444572249",
                "miles": "25207142.2137410762"
            },
            "orbiting_body": "Earth"
        },
        {
            "close_approach_date": "2008-12-30",
            "close_approach_date_full": "2008-Dec-30 02:03",
            "epoch_date_close_approach": 1230602580000,
            "relative_velocity": {
                "kilometers_per_second": "19.5547071297",
                "kilometers_per_hour": "70396.9456669099",
                "miles_per_hour": "43741.9243784197"
            },
            "miss_distance": {
                "astronomical": "0.19256143",
                "lunar": "74.90639627",
                "kilometers": "28806779.7721541",
                "miles": "17899702.93016258"
            },
            "orbiting_body": "Earth"
        },
        {
            "close_approach_date": "2014-07-03",
            "close_approach_date_full": "2014-Jul-03 14:47",
            "epoch_date_close_approach": 1404398820000,
            "relative_velocity": {
                "kilometers_per_second": "23.5498047384",
                "kilometers_per_hour": "84779.2970583487",
                "miles_per_hour": "52678.5582193945"
            },
            "miss_distance": {
                "astronomical": "0.1224675494",
                "lunar": "47.6398767166",
                "kilometers": "18320884.534359778",
                "miles": "11384069.7633218164"
            },
            "orbiting_body": "Earth"
        },
        {
            "close_approach_date": "2016-06-09",
            "close_approach_date_full": "2016-Jun-09 08:32",
            "epoch_date_close_approach": 1465461120000,
            "relative_velocity": {
                "kilometers_per_second": "34.1667512872",
                "kilometers_per_hour": "123000.3046338343",
                "miles_per_hour": "76427.6059542844"
            },
            "miss_distance": {
                "astronomical": "0.4179767399",
                "lunar": "162.5929518211",
                "kilometers": "62528429.998584013",
                "miles": "38853364.7466568594"
            },
            "orbiting_body": "Earth"
        }
    ],
    "orbital_data": {
        "orbit_id": "10",
        "orbit_determination_date": "2017-04-06 09:01:41",
        "first_observation_date": "2009-01-15",
        "last_observation_date": "2009-02-04",
        "data_arc_in_days": 20,
        "observations_used": 29,
        "orbit_uncertainty": "7",
        "minimum_orbit_intersection": ".0567501",
        "jupiter_tisserand_invariant": "4.111",
        "epoch_osculation": "2459000.5",
        "eccentricity": ".6247703255781952",
        "semi_major_axis": "1.549238546854738",
        "inclination": "28.05268725828698",
        "ascending_node_longitude": "110.5745136300378",
        "orbital_period": "704.3294829557914",
        "perihelion_distance": ".5813202755380131",
        "perihelion_argument": "257.8763595482417",
        "aphelion_distance": "2.517156818171462",
        "perihelion_time": "2459000.257416166672",
        "mean_anomaly": ".1239905216398233",
        "mean_motion": ".5111244221798338",
        "equinox": "J2000",
        "orbit_class": {
            "orbit_class_type": "APO",
            "orbit_class_description": "Near-Earth asteroid orbits which cross the Earth’s orbit similar to that of 1862 Apollo",
            "orbit_class_range": "a (semi-major axis) > 1.0 AU; q (perihelion) < 1.017 AU"
        }
    },
    "is_sentry_object": false
}